RANGE-A                 
1 43773U 18099R   26068.70590171  .00005536  00000+0  32166-3 0  9992
2 43773  97.4107 114.1927 0009674 340.4473  19.6386 15.12458640397457
STARLINK-4102           
1 53143U 22083M   26068.57531107 -.00000763  00000+0 -29837-4 0  9992
2 53143  53.2176 174.6333 0001384  99.2353 260.8796 15.08835002201201
